[
  {
    "OBJECT_NAME": "STARLINK-32429",
    "OBJECT_ID": "24193X",
    "EPOCH": "2025-11-11T07:07:58.630368",
    "MEAN_MOTION": 15.30195216,
    "ECCENTRICITY": 0.0001317,
    "INCLINATION": 53.1611,
    "RA_OF_ASC_NODE": 280.6748,
    "ARG_OF_PERICENTER": 94.0886,
    "MEAN_ANOMALY": 266.0266,
    "EPHEMERIS_TYPE": 0,
    "CLASSIFICATION_TYPE": "U",
    "NORAD_CAT_ID": 61682,
    "ELEMENT_SET_NO": 999,
    "REV_AT_EPOCH": 5840,
    "BSTAR": 7.5813e-05,
    "MEAN_MOTION_DOT": 1.886e-05,
    "MEAN_MOTION_DDOT": 0.0,
    "TLE_LINE1": "1 61682U 24193X   25315.29720637  .00001886  00000+0  75813-4 0  9994",
    "TLE_LINE2": "2 61682  53.1611 280.6748 0001317  94.0886 266.0266 15.30195216 58402",
    "COMMENT": "Grouped by shell and plane from TLE"
  },
  {
    "OBJECT_NAME": "STARLINK-32870",
    "OBJECT_ID": "25032P",
    "EPOCH": "2025-11-11T07:17:55.123008",
    "MEAN_MOTION": 15.27624043,
    "ECCENTRICITY": 0.000294,
    "INCLINATION": 43.0018,
    "RA_OF_ASC_NODE": 284.7021,
    "ARG_OF_PERICENTER": 252.8997,
    "MEAN_ANOMALY": 107.1532,
    "EPHEMERIS_TYPE": 0,
    "CLASSIFICATION_TYPE": "U",
    "NORAD_CAT_ID": 63018,
    "ELEMENT_SET_NO": 999,
    "REV_AT_EPOCH": 4251,
    "BSTAR": 0.0018939,
    "MEAN_MOTION_DOT": 0.00052299,
    "MEAN_MOTION_DDOT": 0.0,
    "TLE_LINE1": "1 63018U 25032P   25315.30411022  .00052299  00000+0  18939-2 0  9997",
    "TLE_LINE2": "2 63018  43.0018 284.7021 0002940 252.8997 107.1532 15.27624043 42512",
    "COMMENT": "Grouped by shell and plane from TLE"
  },
  {
    "OBJECT_NAME": "STARLINK-32872",
    "OBJECT_ID": "25032Q",
    "EPOCH": "2025-11-11T06:15:13.756032",
    "MEAN_MOTION": 15.27631085,
    "ECCENTRICITY": 0.0001349,
    "INCLINATION": 43.001,
    "RA_OF_ASC_NODE": 285.2432,
    "ARG_OF_PERICENTER": 273.5739,
    "MEAN_ANOMALY": 86.4958,
    "EPHEMERIS_TYPE": 0,
    "CLASSIFICATION_TYPE": "U",
    "NORAD_CAT_ID": 63019,
    "ELEMENT_SET_NO": 999,
    "REV_AT_EPOCH": 4250,
    "BSTAR": 0.001332,
    "MEAN_MOTION_DOT": 0.0003663,
    "MEAN_MOTION_DDOT": 0.0,
    "TLE_LINE1": "1 63019U 25032Q   25315.26057588  .00036630  00000+0  13320-2 0  9996",
    "TLE_LINE2": "2 63019  43.0010 285.2432 0001349 273.5739  86.4958 15.27631085 42507",
    "COMMENT": "Grouped by shell and plane from TLE"
  },
  {
    "OBJECT_NAME": "STARLINK-32677",
    "OBJECT_ID": "25032R",
    "EPOCH": "2025-11-11T05:49:19.321536",
    "MEAN_MOTION": 15.27626021,
    "ECCENTRICITY": 0.0001049,
    "INCLINATION": 43.0024,
    "RA_OF_ASC_NODE": 285.1017,
    "ARG_OF_PERICENTER": 265.2855,
    "MEAN_ANOMALY": 94.7876,
    "EPHEMERIS_TYPE": 0,
    "CLASSIFICATION_TYPE": "U",
    "NORAD_CAT_ID": 63020,
    "ELEMENT_SET_NO": 999,
    "REV_AT_EPOCH": 4249,
    "BSTAR": 0.0012653,
    "MEAN_MOTION_DOT": 0.00034769,
    "MEAN_MOTION_DDOT": 0.0,
    "TLE_LINE1": "1 63020U 25032R   25315.24258474  .00034769  00000+0  12653-2 0  9992",
    "TLE_LINE2": "2 63020  43.0024 285.1017 0001049 265.2855  94.7876 15.27626021 42499",
    "COMMENT": "Grouped by shell and plane from TLE"
  },
  {
    "OBJECT_NAME": "STARLINK-32929",
    "OBJECT_ID": "25032S",
    "EPOCH": "2025-11-11T05:54:52.581888",
    "MEAN_MOTION": 15.27619074,
    "ECCENTRICITY": 0.0001677,
    "INCLINATION": 43.0033,
    "RA_OF_ASC_NODE": 285.1294,
    "ARG_OF_PERICENTER": 256.0512,
    "MEAN_ANOMALY": 104.0153,
    "EPHEMERIS_TYPE": 0,
    "CLASSIFICATION_TYPE": "U",
    "NORAD_CAT_ID": 63021,
    "ELEMENT_SET_NO": 999,
    "REV_AT_EPOCH": 4250,
    "BSTAR": 0.0013322999999999998,
    "MEAN_MOTION_DOT": 0.00036627,
    "MEAN_MOTION_DDOT": 0.0,
    "TLE_LINE1": "1 63021U 25032S   25315.24644192  .00036627  00000+0  13323-2 0  9999",
    "TLE_LINE2": "2 63021  43.0033 285.1294 0001677 256.0512 104.0153 15.27619074 42507",
    "COMMENT": "Grouped by shell and plane from TLE"
  },
  {
    "OBJECT_NAME": "STARLINK-32944",
    "OBJECT_ID": "25032T",
    "EPOCH": "2025-11-11T06:20:46.882464",
    "MEAN_MOTION": 15.27629799,
    "ECCENTRICITY": 0.0001378,
    "INCLINATION": 43.002,
    "RA_OF_ASC_NODE": 285.2719,
    "ARG_OF_PERICENTER": 265.5974,
    "MEAN_ANOMALY": 94.472,
    "EPHEMERIS_TYPE": 0,
    "CLASSIFICATION_TYPE": "U",
    "NORAD_CAT_ID": 63022,
    "ELEMENT_SET_NO": 999,
    "REV_AT_EPOCH": 4250,
    "BSTAR": 0.0014811,
    "MEAN_MOTION_DOT": 0.00040782,
    "MEAN_MOTION_DDOT": 0.0,
    "TLE_LINE1": "1 63022U 25032T   25315.26443151  .00040782  00000+0  14811-2 0  9994",
    "TLE_LINE2": "2 63022  43.0020 285.2719 0001378 265.5974  94.4720 15.27629799 42509",
    "COMMENT": "Grouped by shell and plane from TLE"
  },
  {
    "OBJECT_NAME": "STARLINK-32943",
    "OBJECT_ID": "25032U",
    "EPOCH": "2025-11-11T06:52:01.306272",
    "MEAN_MOTION": 15.27632805,
    "ECCENTRICITY": 0.0001059,
    "INCLINATION": 43.0014,
    "RA_OF_ASC_NODE": 284.5631,
    "ARG_OF_PERICENTER": 262.5365,
    "MEAN_ANOMALY": 97.5366,
    "EPHEMERIS_TYPE": 0,
    "CLASSIFICATION_TYPE": "U",
    "NORAD_CAT_ID": 63023,
    "ELEMENT_SET_NO": 999,
    "REV_AT_EPOCH": 4251,
    "BSTAR": 0.0016093,
    "MEAN_MOTION_DOT": 0.00044361,
    "MEAN_MOTION_DDOT": 0.0,
    "TLE_LINE1": "1 63023U 25032U   25315.28612623  .00044361  00000+0  16093-2 0  9990",
    "TLE_LINE2": "2 63023  43.0014 284.5631 0001059 262.5365  97.5366 15.27632805 42518",
    "COMMENT": "Grouped by shell and plane from TLE"
  },
  {
    "OBJECT_NAME": "STARLINK-32803",
    "OBJECT_ID": "25032V",
    "EPOCH": "2025-11-11T06:46:28.204896",
    "MEAN_MOTION": 15.27627801,
    "ECCENTRICITY": 0.0001364,
    "INCLINATION": 42.9995,
    "RA_OF_ASC_NODE": 284.5303,
    "ARG_OF_PERICENTER": 244.1278,
    "MEAN_ANOMALY": 115.9433,
    "EPHEMERIS_TYPE": 0,
    "CLASSIFICATION_TYPE": "U",
    "NORAD_CAT_ID": 63024,
    "ELEMENT_SET_NO": 999,
    "REV_AT_EPOCH": 4235,
    "BSTAR": 0.0014833,
    "MEAN_MOTION_DOT": 0.00040842,
    "MEAN_MOTION_DDOT": 0.0,
    "TLE_LINE1": "1 63024U 25032V   25315.28227089  .00040842  00000+0  14833-2 0  9999",
    "TLE_LINE2": "2 63024  42.9995 284.5303 0001364 244.1278 115.9433 15.27627801 42351",
    "COMMENT": "Grouped by shell and plane from TLE"
  },
  {
    "OBJECT_NAME": "STARLINK-32926",
    "OBJECT_ID": "25032W",
    "EPOCH": "2025-11-11T06:37:13.355328",
    "MEAN_MOTION": 15.27649811,
    "ECCENTRICITY": 0.0001169,
    "INCLINATION": 43.0,
    "RA_OF_ASC_NODE": 284.4818,
    "ARG_OF_PERICENTER": 286.6957,
    "MEAN_ANOMALY": 73.3766,
    "EPHEMERIS_TYPE": 0,
    "CLASSIFICATION_TYPE": "U",
    "NORAD_CAT_ID": 63025,
    "ELEMENT_SET_NO": 999,
    "REV_AT_EPOCH": 4251,
    "BSTAR": 0.0016877,
    "MEAN_MOTION_DOT": 0.00046573,
    "MEAN_MOTION_DDOT": 0.0,
    "TLE_LINE1": "1 63025U 25032W   25315.27584902  .00046573  00000+0  16877-2 0  9996",
    "TLE_LINE2": "2 63025  43.0000 284.4818 0001169 286.6957  73.3766 15.27649811 42518",
    "COMMENT": "Grouped by shell and plane from TLE"
  },
  {
    "OBJECT_NAME": "STARLINK-34177",
    "OBJECT_ID": "25113A",
    "EPOCH": "2025-11-11T04:31:47.387424",
    "MEAN_MOTION": 15.30204487,
    "ECCENTRICITY": 0.0001366,
    "INCLINATION": 53.1598,
    "RA_OF_ASC_NODE": 281.4517,
    "ARG_OF_PERICENTER": 86.9016,
    "MEAN_ANOMALY": 273.2141,
    "EPHEMERIS_TYPE": 0,
    "CLASSIFICATION_TYPE": "U",
    "NORAD_CAT_ID": 64170,
    "ELEMENT_SET_NO": 999,
    "REV_AT_EPOCH": 2692,
    "BSTAR": 0.00072041,
    "MEAN_MOTION_DOT": 0.00021041,
    "MEAN_MOTION_DDOT": 0.0,
    "TLE_LINE1": "1 64170U 25113A   25315.18874291  .00021041  00000+0  72041-3 0  9990",
    "TLE_LINE2": "2 64170  53.1598 281.4517 0001366  86.9016 273.2141 15.30204487 26928",
    "COMMENT": "Grouped by shell and plane from TLE"
  },
  {
    "OBJECT_NAME": "STARLINK-34228",
    "OBJECT_ID": "25113B",
    "EPOCH": "2025-11-11T07:12:32.546016",
    "MEAN_MOTION": 15.30217757,
    "ECCENTRICITY": 0.0001144,
    "INCLINATION": 53.1613,
    "RA_OF_ASC_NODE": 280.7238,
    "ARG_OF_PERICENTER": 102.3899,
    "MEAN_ANOMALY": 257.723,
    "EPHEMERIS_TYPE": 0,
    "CLASSIFICATION_TYPE": "U",
    "NORAD_CAT_ID": 64171,
    "ELEMENT_SET_NO": 999,
    "REV_AT_EPOCH": 2694,
    "BSTAR": 0.00094619,
    "MEAN_MOTION_DOT": 0.00027784,
    "MEAN_MOTION_DDOT": 0.0,
    "TLE_LINE1": "1 64171U 25113B   25315.30037669  .00027784  00000+0  94619-3 0  9990",
    "TLE_LINE2": "2 64171  53.1613 280.7238 0001144 102.3899 257.7230 15.30217757 26947",
    "COMMENT": "Grouped by shell and plane from TLE"
  },
  {
    "OBJECT_NAME": "STARLINK-34233",
    "OBJECT_ID": "25113C",
    "EPOCH": "2025-11-11T06:25:35.974272",
    "MEAN_MOTION": 15.30208278,
    "ECCENTRICITY": 0.0001245,
    "INCLINATION": 53.1591,
    "RA_OF_ASC_NODE": 281.2329,
    "ARG_OF_PERICENTER": 96.6458,
    "MEAN_ANOMALY": 263.4684,
    "EPHEMERIS_TYPE": 0,
    "CLASSIFICATION_TYPE": "U",
    "NORAD_CAT_ID": 64172,
    "ELEMENT_SET_NO": 999,
    "REV_AT_EPOCH": 2693,
    "BSTAR": 0.00079114,
    "MEAN_MOTION_DOT": 0.00023151,
    "MEAN_MOTION_DDOT": 0.0,
    "TLE_LINE1": "1 64172U 25113C   25315.26777748  .00023151  00000+0  79114-3 0  9992",
    "TLE_LINE2": "2 64172  53.1591 281.2329 0001245  96.6458 263.4684 15.30208278 26932",
    "COMMENT": "Grouped by shell and plane from TLE"
  },
  {
    "OBJECT_NAME": "STARLINK-34172",
    "OBJECT_ID": "25113D",
    "EPOCH": "2025-11-11T07:14:03.717888",
    "MEAN_MOTION": 15.30216022,
    "ECCENTRICITY": 0.0001154,
    "INCLINATION": 53.162,
    "RA_OF_ASC_NODE": 280.7288,
    "ARG_OF_PERICENTER": 99.7113,
    "MEAN_ANOMALY": 260.4018,
    "EPHEMERIS_TYPE": 0,
    "CLASSIFICATION_TYPE": "U",
    "NORAD_CAT_ID": 64173,
    "ELEMENT_SET_NO": 999,
    "REV_AT_EPOCH": 2690,
    "BSTAR": 0.0009889200000000001,
    "MEAN_MOTION_DOT": 0.00029059,
    "MEAN_MOTION_DDOT": 0.0,
    "TLE_LINE1": "1 64173U 25113D   25315.30143192  .00029059  00000+0  98892-3 0  9995",
    "TLE_LINE2": "2 64173  53.1620 280.7288 0001154  99.7113 260.4018 15.30216022 26906",
    "COMMENT": "Grouped by shell and plane from TLE"
  }
]